{
  "type": "FeatureCollection",
  "features": [
    {
      "type": "Feature",
      "properties": {
        "norad_id": 38166,
        "name": "FENGYUN 1C DEB",
        "group": "fengyun-1c-debris",
        "lat": 59.95089639865415,
        "lon": -59.44813287590076,
        "alt_km": 798.5469047953766,
        "timestamp": "2025-12-26T19:22:39.196819+00:00",
        "meta_object_name": "FENGYUN 1C DEB",
        "meta_object_id": "1999-025ERP",
        "meta_epoch": "2025-12-25T17:39:29.269152",
        "meta_mean_motion": 14.31108062,
        "meta_eccentricity": 0.00517597,
        "meta_inclination": 99.0777,
        "meta_ra_of_asc_node": 103.3893,
        "meta_arg_of_pericenter": 5.2769,
        "meta_mean_anomaly": 354.8948,
        "meta_ephemeris_type": 0,
        "meta_classification_type": "U",
        "meta_norad_cat_id": 38166,
        "meta_element_set_no": 999,
        "meta_rev_at_epoch": 63958,
        "meta_bstar": 0.0026339768,
        "meta_mean_motion_dot": 7.006e-05,
        "meta_mean_motion_ddot": 0,
        "tle_line1": "1 38166U 99025ERP 25359.73575543  .00007006  00000+0  26340-2 0  9991",
        "tle_line2": "2 38166  99.0777 103.3893 0051759   5.2769 354.8948 14.31108062639586"
      },
      "geometry": {
        "type": "Point",
        "coordinates": [
          -59.44813287590076,
          59.95089639865415
        ]
      }
    },
    {
      "type": "Feature",
      "properties": {
        "norad_id": 38169,
        "name": "FENGYUN 1C DEB",
        "group": "fengyun-1c-debris",
        "lat": 29.542479137514118,
        "lon": 161.60362947912532,
        "alt_km": 666.6207493260172,
        "timestamp": "2025-12-26T19:22:39.196829+00:00",
        "meta_object_name": "FENGYUN 1C DEB",
        "meta_object_id": "1999-025ERS",
        "meta_epoch": "2025-12-17T04:37:40.598400",
        "meta_mean_motion": 14.71570377,
        "meta_eccentricity": 0.00320132,
        "meta_inclination": 98.9779,
        "meta_ra_of_asc_node": 325.865,
        "meta_arg_of_pericenter": 54.7995,
        "meta_mean_anomaly": 305.6199,
        "meta_ephemeris_type": 0,
        "meta_classification_type": "U",
        "meta_norad_cat_id": 38169,
        "meta_element_set_no": 999,
        "meta_rev_at_epoch": 61334,
        "meta_bstar": 0.002130707,
        "meta_mean_motion_dot": 0.00013312,
        "meta_mean_motion_ddot": 0,
        "tle_line1": "1 38169U 99025ERS 25351.19283100  .00013312  00000+0  21307-2 0  9996",
        "tle_line2": "2 38169  98.9779 325.8650 0032013  54.7995 305.6199 14.71570377613347"
      },
      "geometry": {
        "type": "Point",
        "coordinates": [
          161.60362947912532,
          29.542479137514118
        ]
      }
    },
    {
      "type": "Feature",
      "properties": {
        "norad_id": 38173,
        "name": "FENGYUN 1C DEB",
        "group": "fengyun-1c-debris",
        "lat": 15.068124347616122,
        "lon": 84.12155050995793,
        "alt_km": 772.9197570181022,
        "timestamp": "2025-12-26T19:22:39.196839+00:00",
        "meta_object_name": "FENGYUN 1C DEB",
        "meta_object_id": "1999-025ERW",
        "meta_epoch": "2025-12-25T22:34:52.894272",
        "meta_mean_motion": 14.372448,
        "meta_eccentricity": 0.016339,
        "meta_inclination": 98.9989,
        "meta_ra_of_asc_node": 260.77,
        "meta_arg_of_pericenter": 74.007,
        "meta_mean_anomaly": 287.9045,
        "meta_ephemeris_type": 0,
        "meta_classification_type": "U",
        "meta_norad_cat_id": 38173,
        "meta_element_set_no": 999,
        "meta_rev_at_epoch": 60833,
        "meta_bstar": 0.00095573,
        "meta_mean_motion_dot": 3.27e-05,
        "meta_mean_motion_ddot": 0,
        "tle_line1": "1 38173U 99025ERW 25359.94088998  .00003270  00000+0  95573-3 0  9999",
        "tle_line2": "2 38173  98.9989 260.7700 0163390  74.0070 287.9045 14.37244800608336"
      },
      "geometry": {
        "type": "Point",
        "coordinates": [
          84.12155050995793,
          15.068124347616122
        ]
      }
    },
    {
      "type": "Feature",
      "properties": {
        "norad_id": 38493,
        "name": "FENGYUN 1C DEB",
        "group": "fengyun-1c-debris",
        "lat": 4.363082908938355,
        "lon": 139.98846225742653,
        "alt_km": 761.1590774342176,
        "timestamp": "2025-12-26T19:22:39.196851+00:00",
        "meta_object_name": "FENGYUN 1C DEB",
        "meta_object_id": "1999-025ESC",
        "meta_epoch": "2025-12-24T15:22:34.770144",
        "meta_mean_motion": 13.62325657,
        "meta_eccentricity": 0.0426499,
        "meta_inclination": 99.0811,
        "meta_ra_of_asc_node": 317.2644,
        "meta_arg_of_pericenter": 214.2479,
        "meta_mean_anomaly": 143.0477,
        "meta_ephemeris_type": 0,
        "meta_classification_type": "U",
        "meta_norad_cat_id": 38493,
        "meta_element_set_no": 999,
        "meta_rev_at_epoch": 56660,
        "meta_bstar": 0.00019268039,
        "meta_mean_motion_dot": 2.34e-06,
        "meta_mean_motion_ddot": 0,
        "tle_line1": "1 38493U 99025ESC 25358.64068021  .00000234  00000+0  19268-3 0  9999",
        "tle_line2": "2 38493  99.0811 317.2644 0426499 214.2479 143.0477 13.62325657566606"
      },
      "geometry": {
        "type": "Point",
        "coordinates": [
          139.98846225742653,
          4.363082908938355
        ]
      }
    },
    {
      "type": "Feature",
      "properties": {
        "norad_id": 38494,
        "name": "FENGYUN 1C DEB",
        "group": "fengyun-1c-debris",
        "lat": -39.04682007331954,
        "lon": -43.1133340915498,
        "alt_km": 622.891627508574,
        "timestamp": "2025-12-26T19:22:39.196861+00:00",
        "meta_object_name": "FENGYUN 1C DEB",
        "meta_object_id": "1999-025ESD",
        "meta_epoch": "2025-12-24T02:24:03.074112",
        "meta_mean_motion": 14.00504572,
        "meta_eccentricity": 0.03833507,
        "meta_inclination": 98.4389,
        "meta_ra_of_asc_node": 307.463,
        "meta_arg_of_pericenter": 337.3093,
        "meta_mean_anomaly": 21.1511,
        "meta_ephemeris_type": 0,
        "meta_classification_type": "U",
        "meta_norad_cat_id": 38494,
        "meta_element_set_no": 999,
        "meta_rev_at_epoch": 7313,
        "meta_bstar": 0.0049089492,
        "meta_mean_motion_dot": 0.00013814,
        "meta_mean_motion_ddot": 0,
        "tle_line1": "1 38494U 99025ESD 25358.10003558  .00013814  00000+0  49089-2 0  9996",
        "tle_line2": "2 38494  98.4389 307.4630 0383350 337.3093  21.1511 14.00504572 73137"
      },
      "geometry": {
        "type": "Point",
        "coordinates": [
          -43.1133340915498,
          -39.04682007331954
        ]
      }
    },
    {
      "type": "Feature",
      "properties": {
        "norad_id": 38495,
        "name": "FENGYUN 1C DEB",
        "group": "fengyun-1c-debris",
        "lat": -50.43039636078551,
        "lon": 27.755061999017848,
        "alt_km": 1174.2575821538312,
        "timestamp": "2025-12-26T19:22:39.196871+00:00",
        "meta_object_name": "FENGYUN 1C DEB",
        "meta_object_id": "1999-025ESE",
        "meta_epoch": "2025-12-02T06:20:41.771904",
        "meta_mean_motion": 13.69106573,
        "meta_eccentricity": 0.0252581,
        "meta_inclination": 99.1709,
        "meta_ra_of_asc_node": 353.1036,
        "meta_arg_of_pericenter": 165.9119,
        "meta_mean_anomaly": 194.9245,
        "meta_ephemeris_type": 0,
        "meta_classification_type": "U",
        "meta_norad_cat_id": 38495,
        "meta_element_set_no": 999,
        "meta_rev_at_epoch": 60969,
        "meta_bstar": 0.0025866,
        "meta_mean_motion_dot": 2.759e-05,
        "meta_mean_motion_ddot": 0,
        "tle_line1": "1 38495U 99025ESE 25336.26437236  .00002759  00000+0  25866-2 0  9997",
        "tle_line2": "2 38495  99.1709 353.1036 0252581 165.9119 194.9245 13.69106573609697"
      },
      "geometry": {
        "type": "Point",
        "coordinates": [
          27.755061999017848,
          -50.43039636078551
        ]
      }
    },
    {
      "type": "Feature",
      "properties": {
        "norad_id": 38496,
        "name": "FENGYUN 1C DEB",
        "group": "fengyun-1c-debris",
        "lat": -22.249902103034955,
        "lon": 13.795440732697552,
        "alt_km": 809.3571487717027,
        "timestamp": "2025-12-26T19:22:39.196883+00:00",
        "meta_object_name": "FENGYUN 1C DEB",
        "meta_object_id": "1999-025ESF",
        "meta_epoch": "2025-12-19T06:57:41.678208",
        "meta_mean_motion": 14.10020272,
        "meta_eccentricity": 0.0077623,
        "meta_inclination": 98.7629,
        "meta_ra_of_asc_node": 2.8558,
        "meta_arg_of_pericenter": 347.946,
        "meta_mean_anomaly": 11.9851,
        "meta_ephemeris_type": 0,
        "meta_classification_type": "U",
        "meta_norad_cat_id": 38496,
        "meta_element_set_no": 999,
        "meta_rev_at_epoch": 81113,
        "meta_bstar": 0.00061884,
        "meta_mean_motion_dot": 1.08e-05,
        "meta_mean_motion_ddot": 0,
        "tle_line1": "1 38496U 99025ESF 25353.29006572  .00001080  00000+0  61884-3 0  9992",
        "tle_line2": "2 38496  98.7629   2.8558 0077623 347.9460  11.9851 14.10020272811137"
      },
      "geometry": {
        "type": "Point",
        "coordinates": [
          13.795440732697552,
          -22.249902103034955
        ]
      }
    }
  ]
}